NORAD_CAT_ID,OBJECT_NAME,OBJECT_TYPE,EPOCH,MEAN_MOTION,ECCENTRICITY,INCLINATION,RA_OF_ASC_NODE,ARG_OF_PERICENTER,MEAN_ANOMALY,BSTAR,MEAN_MOTION_DOT,MEAN_MOTION_DDOT,TLE_LINE0,TLE_LINE1,TLE_LINE2,SEMIMAJOR_AXIS,PERIOD,APOGEE,PERIGEE,DECAYED
49749,STARLINK-3250,PAYLOAD,2023-09-22 04:35:15,15.08345261,0.000159,53.2157,227.3666,100.4772,259.64,0.0106,0.001702,0.0,0 STARLINK-3250,1 49749U 21115AB  23265.19115010  .00170200  00000-0  10600-1 0  9997,2 49749  53.2157 227.3666 0001590 100.4772 259.6400 15.08345261100840,6919.393,95.469,542.358,540.158,0.0
49749,STARLINK-3250,PAYLOAD,2023-09-22 14:00:01,15.08835489,0.0001628,53.2153,225.6064,94.7474,236.8901,-0.00079949,-0.00012988,0.0,0 STARLINK-3250,1 49749U 21115AB  23265.58334491 -.00012988  00000-0 -79949-3 0  9999,2 49749  53.2153 225.6064 0001628  94.7474 236.8901 15.08835489100901,6917.894,95.438,540.885,538.633,0.0
49749,STARLINK-3250,PAYLOAD,2023-09-22 22:00:00,15.08842095,0.0001656,53.2154,224.1096,100.8316,242.3865,0.0016529,0.00026117,0.0,0 STARLINK-3250,1 49749U 21115AB  23265.91667824  .00026117  00000-0  16529-2 0  9996,2 49749  53.2154 224.1096 0001656 100.8316 242.3865 15.08842095  5700,6917.874,95.437,540.885,538.593,0.0
49749,STARLINK-3250,PAYLOAD,2023-09-23 06:00:00,15.0885191,0.0001569,53.2152,222.6149,90.2094,264.6242,-0.0026401,-0.00042074,0.0,0 STARLINK-3250,1 49749U 21115AB  23266.25001157 -.00042074  00000-0 -26401-2 0  9997,2 49749  53.2152 222.6149 0001569  90.2094 264.6242 15.08851910101000,6917.844,95.437,540.794,538.624,0.0
49749,STARLINK-3250,PAYLOAD,2023-09-23 14:00:01,15.08830107,0.0001478,53.2148,221.1172,94.1409,272.2838,-0.00012685,-2.306e-05,0.0,0 STARLINK-3250,1 49749U 21115AB  23266.58334491 -.00002306  00000-0 -12685-3 0  9997,2 49749  53.2148 221.1172 0001478  94.1409 272.2838 15.08830107  5809,6917.911,95.438,540.798,538.753,0.0
49749,STARLINK-3250,PAYLOAD,2023-09-23 22:00:01,15.088456,0.0001503,53.2148,219.6206,98.8526,279.2112,0.0012992,0.00020452,0.0,0 STARLINK-3250,1 49749U 21115AB  23266.91668981  .00020452  00000-0  12992-2 0  9998,2 49749  53.2148 219.6206 0001503  98.8526 279.2112 15.08845600101105,6917.863,95.437,540.768,538.689,0.0
49749,STARLINK-3250,PAYLOAD,2023-09-24 14:00:01,15.08823085,0.0001459,53.2143,216.628,88.6799,312.53,0.00046907,7.182e-05,0.0,0 STARLINK-3250,1 49749U 21115AB  23267.58334491  .00007182  00000-0  46907-3 0  9997,2 49749  53.2143 216.6280 0001459  88.6799 312.5300 15.08823085101202,6917.932,95.439,540.806,538.788,0.0
49749,STARLINK-3250,PAYLOAD,2023-09-24 22:00:00,15.08856092,0.000149,53.2144,215.1316,90.787,321.9956,-0.00023413,-4.014e-05,0.0,0 STARLINK-3250,1 49749U 21115AB  23267.91667824 -.00004014  00000-0 -23413-3 0  9993,2 49749  53.2144 215.1316 0001490  90.7870 321.9956 15.08856092  5844,6917.831,95.437,540.727,538.665,0.0
49749,STARLINK-3250,PAYLOAD,2023-09-25 14:00:01,15.08843264,0.000147,53.2144,212.1386,83.9866,352.0787,0.0019839,0.0003143,0.0,0 STARLINK-3250,1 49749U 21115AB  23268.58335648  .00031430  00000-0  19839-2 0  9999,2 49749  53.2144 212.1386 0001470  83.9866 352.0787 15.08843264101352,6917.87,95.437,540.752,538.718,0.0
49749,STARLINK-3250,PAYLOAD,2023-09-26 00:00:00,15.08920944,0.0001473,53.2145,210.2686,88.9066,91.5972,-0.0057217,-0.00090407,0.0,0 STARLINK-3250,1 49749U 21115AB  23269.00001157 -.00090407  00000-0 -57217-2 0  9995,2 49749  53.2145 210.2686 0001473  88.9066  91.5972 15.08920944  5800,6917.633,95.432,540.517,538.479,0.0
49749,STARLINK-3250,PAYLOAD,2023-09-26 03:58:22,15.08866161,0.0001908,53.2164,209.5234,63.4645,296.6542,0.00045829,7.018e-05,0.0,0 STARLINK-3250,1 49749U 21115AB  23269.16553290  .00007018  00000-0  45829-3 0  9993,2 49749  53.2164 209.5234 0001908  63.4645 296.6542 15.08866161101443,6917.8,95.436,540.985,538.346,0.0
49749,STARLINK-3250,PAYLOAD,2023-09-26 19:52:14,15.08841011,0.0001698,53.216,206.5512,78.2091,281.9091,-6.2797e-05,-1.287e-05,0.0,0 STARLINK-3250,1 49749U 21115AB  23269.82794083 -.00001287  00000-0 -62797-4 0  9991,2 49749  53.2160 206.5512 0001698  78.2091 281.9091 15.08841011101544,6917.877,95.437,540.917,538.568,0.0
49749,STARLINK-3250,PAYLOAD,2023-09-27 02:13:46,15.08840425,0.0001439,53.2161,205.3604,92.1793,267.9364,-3.6336e-05,-8.66e-06,0.0,0 STARLINK-3250,1 49749U 21115AB  23270.09290031 -.00000866  00000-0 -36336-4 0  9998,2 49749  53.2161 205.3604 0001439  92.1793 267.9364 15.08840425100477,6917.879,95.438,540.74,538.749,0.0
49749,STARLINK-3250,PAYLOAD,2023-09-27 13:21:29,15.08829751,0.0001622,53.2164,203.2805,77.9357,282.1816,-0.00012985,-2.353e-05,0.0,0 STARLINK-3250,1 49749U 21115AB  23270.55658815 -.00002353  00000-0 -12985-3 0  9993,2 49749  53.2164 203.2805 0001622  77.9357 282.1816 15.08829751101652,6917.912,95.438,540.899,538.655,0.0
49749,STARLINK-3250,PAYLOAD,2023-09-28 05:15:21,15.08837333,0.0001573,53.2181,200.3029,88.6028,271.5144,-0.00015313,-2.724e-05,0.0,0 STARLINK-3250,1 49749U 21115AB  23271.21899408 -.00002724  00000-0 -15313-3 0  9992,2 49749  53.2181 200.3029 0001573  88.6028 271.5144 15.08837333100645,6917.889,95.438,540.842,538.665,0.0
49749,STARLINK-3250,PAYLOAD,2023-09-30 03:21:31,15.08856961,0.0001408,53.216,191.6842,96.2385,263.8768,0.00046031,7.049e-05,0.0,0 STARLINK-3250,1 49749U 21115AB  23273.13994580  .00007049  00000-0  46031-3 0  9996,2 49749  53.2160 191.6842 0001408  96.2385 263.8768 15.08856961102045,6917.829,95.436,540.668,538.72,0.0
49749,STARLINK-3250,PAYLOAD,2023-09-30 04:56:54,15.08864792,0.0001432,53.2161,191.3866,96.4327,263.6828,0.00048604,7.461e-05,0.0,0 STARLINK-3250,1 49749U 21115AB  23273.20618321  .00007461  00000-0  48604-3 0  9996,2 49749  53.2161 191.3866 0001432  96.4327 263.6828 15.08864792100947,6917.805,95.436,540.66,538.679,0.0
49749,STARLINK-3250,PAYLOAD,2023-09-30 11:18:27,15.08836199,0.0001599,53.2162,190.1977,85.3196,274.7979,-0.00023693,-4.056e-05,0.0,0 STARLINK-3250,1 49749U 21115AB  23273.47115208 -.00004056  00000-0 -23693-3 0  9991,2 49749  53.2162 190.1977 0001599  85.3196 274.7979 15.08836199102091,6917.892,95.438,540.863,538.651,0.0
49749,STARLINK-3250,PAYLOAD,2023-09-30 17:40:00,15.088186,0.0001403,53.2161,189.0081,79.0506,281.0644,-0.00075449,-0.00012268,0.0,0 STARLINK-3250,1 49749U 21115AB  23273.73611627 -.00012268  00000-0 -75449-3 0  9996,2 49749  53.2161 189.0081 0001403  79.0506 281.0644 15.08818600102134,6917.946,95.439,540.781,538.84,0.0
49749,STARLINK-3250,PAYLOAD,2023-10-01 12:44:38,15.08839624,0.0001435,53.2155,185.44,87.6671,272.4486,0.0018368,0.00029065,0.0,0 STARLINK-3250,1 49749U 21115AB  23274.53100592  .00029065  00000-0  18368-2 0  9996,2 49749  53.2155 185.4400 0001435  87.6671 272.4486 15.08839624102255,6917.882,95.438,540.739,538.754,0.0
49749,STARLINK-3250,PAYLOAD,2023-10-01 22:16:56,15.08897976,0.0001403,53.2153,183.6558,91.7172,268.3981,0.0034488,0.00055117,0.0,0 STARLINK-3250,1 49749U 21115AB  23274.92843611  .00055117  00000-0  34488-2 0  9993,2 49749  53.2153 183.6558 0001403  91.7172 268.3981 15.08897976101206,6917.703,95.434,540.539,538.598,0.0
49749,STARLINK-3250,PAYLOAD,2023-10-02 01:27:42,15.08919781,0.0001556,53.2153,183.061,84.3503,275.7666,0.0038403,0.00061499,0.0,0 STARLINK-3250,1 49749U 21115AB  23275.06090944  .00061499  00000-0  38403-2 0  9993,2 49749  53.2153 183.0610 0001556  84.3503 275.7666 15.08919781102330,6917.637,95.433,540.578,538.425,0.0
49749,STARLINK-3250,PAYLOAD,2023-10-02 18:56:56,15.08840837,0.0001129,53.2147,179.7912,101.544,258.5679,-0.0002886,-4.878e-05,0.0,0 STARLINK-3250,1 49749U 21115AB  23275.78954392 -.00004878  00000-0 -28860-3 0  9995,2 49749  53.2147 179.7912 0001129 101.5440 258.5679 15.08840837102448,6917.878,95.438,540.524,538.962,0.0
49749,STARLINK-3250,PAYLOAD,2023-10-03 10:50:48,15.08829628,0.0001098,53.2145,176.8162,88.1164,271.9954,0.0011471,0.0001801,0.0,0 STARLINK-3250,1 49749U 21115AB  23276.45195174  .00018010  00000-0  11471-2 0  9995,2 49749  53.2145 176.8162 0001098  88.1164 271.9954 15.08829628101437,6917.912,95.438,540.537,539.018,0.0
49749,STARLINK-3250,PAYLOAD,2023-10-03 21:58:30,15.08833468,7.25e-05,53.2144,174.7348,92.0243,268.0832,0.001592,0.00025135,0.0,0 STARLINK-3250,1 49749U 21115AB  23276.91563643  .00025135  00000-0  15920-2 0  9995,2 49749  53.2144 174.7348 0000725  92.0243 268.0832 15.08833468101504,6917.9,95.438,540.267,539.264,0.0
49749,STARLINK-3250,PAYLOAD,2023-10-04 02:44:40,15.08835757,0.0001722,53.2145,173.8432,78.808,281.3106,0.0009676,0.00015143,0.0,0 STARLINK-3250,1 49749U 21115AB  23277.11436008  .00015143  00000-0  96760-3 0  9992,2 49749  53.2145 173.8432 0001722  78.8080 281.3106 15.08835757102649,6917.893,95.438,540.95,538.567,0.0
49749,STARLINK-3250,PAYLOAD,2023-10-04 12:16:59,15.08841933,8.79e-05,53.2144,172.058,91.1954,268.9139,0.00088149,0.0001377,0.0,0 STARLINK-3250,1 49749U 21115AB  23277.51179788  .00013770  00000-0  88149-3 0  9991,2 49749  53.2144 172.0580 0000879  91.1954 268.9139 15.08841933101596,6917.874,95.437,540.348,539.131,0.0
49749,STARLINK-3250,PAYLOAD,2023-10-04 23:24:40,15.08861287,8.89e-05,53.2146,169.9763,77.1834,282.9258,0.0010319,0.00016182,0.0,0 STARLINK-3250,1 49749U 21115AB  23277.97547363  .00016182  00000-0  10319-2 0  9992,2 49749  53.2146 169.9763 0000889  77.1834 282.9258 15.08861287101668,6917.815,95.436,540.295,539.065,0.0
49749,STARLINK-3250,PAYLOAD,2023-10-05 02:35:26,15.08874434,0.0001003,53.2146,169.3819,72.0479,288.0623,0.0013638,0.00021504,0.0,0 STARLINK-3250,1 49749U 21115AB  23278.10794987  .00021504  00000-0  13638-2 0  9995,2 49749  53.2146 169.3819 0001003  72.0479 288.0623 15.08874434101685,6917.775,95.435,540.334,538.946,0.0
49749,STARLINK-3250,PAYLOAD,2023-10-05 21:40:04,15.08849445,0.000159,53.2144,165.8087,122.9141,237.2005,0.0002173,3.173e-05,0.0,0 STARLINK-3250,1 49749U 21115AB  23278.90283251  .00003173  00000-0  21730-3 0  9995,2 49749  53.2144 165.8087 0001590 122.9141 237.2005 15.08849445102914,6917.852,95.437,540.816,538.617,0.0
